OBJECT_NAME,OBJECT_ID,EPOCH,MEAN_MOTION,ECCENTRICITY,INCLINATION,RA_OF_ASC_NODE,ARG_OF_PERICENTER,MEAN_ANOMALY,EPHEMERIS_TYPE,CLASSIFICATION_TYPE,NORAD_CAT_ID,ELEMENT_SET_NO,REV_AT_EPOCH,BSTAR,MEAN_MOTION_DOT,MEAN_MOTION_DDOT
JILIN-1 03,2017-002B,2026-07-10T06:14:12.960672,15.42147239,.00080306,97.1950,198.0270,92.4404,267.7763,0,U,41914,999,52541,.22538918E-3,.9581E-4,0
CARTOSAT-2D,2017-008A,2026-07-10T06:38:24.346752,15.19259457,.00056612,97.4098,250.1496,152.3951,207.7586,0,U,41948,999,52108,.46613857E-4,.915E-5,0
CARTOSAT-2E,2017-036C,2026-07-10T07:03:51.352704,15.19230900,.00028243,97.4268,250.7141,208.1436,151.9647,0,U,42767,999,50165,.79216375E-4,.1601E-4,0
D-SAT,2017-036AF,2026-07-09T15:41:39.093216,15.17339053,.00831504,97.5567,169.5114,84.1363,276.9341,0,U,42794,999,49426,.24798543E-3,.5338E-4,0
IRIDIUM 113,2017-039A,2026-07-10T08:00:35.011584,14.34217385,.00021933,86.3990,312.5038,91.1544,268.9903,0,U,42803,999,47450,-.1145524E-5,.17E-6,0
NORSAT 2,2017-042D,2026-07-10T07:10:51.622176,15.22370229,.00085865,97.4049,4.3816,337.0808,23.0044,0,U,42828,999,49125,.32737998E-3,.7495E-4,0
TECHNOSAT,2017-042E,2026-07-10T06:04:51.176640,15.05091341,.00178569,97.4302,348.0375,19.2762,340.9137,0,U,42829,999,49017,.18714345E-3,.2611E-4,0
FLYING LAPTOP,2017-042G,2026-07-10T07:32:59.917632,15.01291877,.00198656,97.4787,345.9737,47.9662,312.3249,0,U,42831,999,48992,.17529969E-3,.2206E-4,0
WNISAT 1R,2017-042L,2026-07-09T21:05:26.710368,15.01851974,.00114964,97.4827,346.1911,81.2455,279.0072,0,U,42835,999,48991,.77657725E-4,.957E-5,0
LEMUR-2-GREENBERG,2017-042N,2026-07-09T11:53:19.376160,15.32031511,.00071356,97.3831,11.0293,283.6729,76.3718,0,U,42837,999,49180,.3749711E-3,.11532E-3,0
LEMUR-2-FURIAUS,2017-042R,2026-07-09T18:22:55.841376,15.31011310,.00064125,97.3780,9.2029,351.0661,9.0465,0,U,42840,999,49166,.4301312E-3,.12826E-3,0
CORVUS BC2,2017-042X,2026-07-09T17:07:31.132128,15.06439542,.00138947,97.4091,351.1919,40.9384,319.2885,0,U,42846,999,49045,.1498578E-3,.2155E-4,0
CORVUS BC1,2017-042Y,2026-07-08T21:48:29.831040,15.06600810,.00122543,97.4123,351.2462,22.1714,338.0041,0,U,42847,999,49036,.13199073E-3,.1898E-4,0
VRSS-2,2017-060A,2026-07-10T06:58:13.671264,14.81233463,.00178835,97.6507,227.9760,29.2064,331.0145,0,U,42954,999,47187,.7303791E-4,.52E-5,0
MOHAMMED VI-A,2017-070A,2026-07-10T07:27:45.753408,14.77100488,.00011956,97.9549,263.3231,93.0670,267.0677,0,U,43005,999,46739,.11545109E-3,.765E-5,0
FENGYUN 3D,2017-072A,2026-07-10T08:00:16.669728,14.19745759,.0001792,99.0139,166.1754,24.3365,335.7895,0,U,43010,999,44827,.26906806E-3,.523E-5,0
NOAA 20 (JPSS-1),2017-073A,2026-07-10T06:17:00.078144,14.19515837,.00011967,98.7774,130.5199,129.2304,230.8978,0,U,43013,999,44774,.21983803E-4,.2E-7,0
MAKERSAT 0,2017-073D,2026-07-08T17:28:33.025728,15.32839065,.01050669,97.4597,72.4218,195.3224,164.4830,0,U,43016,999,46976,.36375063E-3,.13683E-3,0
RADFXSAT (FOX-1B),2017-073E,2026-07-09T10:21:18.525024,15.13014553,.01480371,97.4687,57.1929,251.5831,106.9257,0,U,43017,999,46875,.22300303E-3,.5081E-4,0
JILIN-1 04,2017-074A,2026-07-10T07:21:48.238848,15.43046533,.0005199,97.4867,301.5468,112.8423,247.3374,0,U,43022,999,47783,.22471805E-3,.9834E-4,0
JILIN-1 05,2017-074B,2026-07-10T06:39:32.270976,15.34237619,.00061988,97.4873,297.7507,138.3101,221.8615,0,U,43023,999,47754,.19152265E-3,.6269E-4,0
JILIN-1 06,2017-074C,2026-07-10T07:37:28.072992,15.33961201,.00077449,97.4799,294.7704,148.7487,211.4218,0,U,43024,999,47738,.12313827E-3,.3967E-4,0
IRIDIUM 116,2017-083C,2026-07-09T18:00:18.736704,14.34219889,.00023862,86.3982,312.5688,99.5500,260.5966,0,U,43072,999,44740,.53058985E-4,.168E-5,0
IRIDIUM 130,2017-083D,2026-07-10T06:38:23.302176,14.34216740,.00021648,86.3991,312.6264,101.1268,259.0172,0,U,43073,999,44742,.4712155E-4,.152E-5,0
LKW-2,2017-084A,2026-07-10T07:11:18.700800,15.26647964,.00033163,97.1190,230.0174,128.8026,231.3510,0,U,43080,999,47521,.15991427E-3,.4124E-4,0
SUPERVIEW-1 03,2018-002A,2026-07-10T07:16:00.573024,15.40096570,.00471894,97.3130,276.1159,98.2279,262.4323,0,U,43099,999,47192,.32878767E-3,.13607E-3,0
CARTOSAT-2F,2018-004A,2026-07-10T06:15:57.750912,15.19243927,.00023827,97.4777,250.6688,146.3595,213.7791,0,U,43111,999,47083,.54612274E-4,.1082E-4,0
LKW-3,2018-006A,2026-07-10T07:39:31.635360,15.35683415,.00025408,97.6631,352.8063,198.9647,161.1502,0,U,43146,999,47226,.20212548E-3,.6928E-4,0
ASNARO-2,2018-007A,2026-07-10T06:09:15.035328,15.22400797,.00019838,97.3974,197.8228,94.0652,266.0811,0,U,43152,999,47092,.2625094E-3,.5996E-4,0
